STARLINK-36333          
1 68256U 26054AA  26101.25002315 -.00066027  00000+0 -42947-3 0  9993
2 68256  53.1593 149.3949 0001118 106.3631 301.8181 15.75262854  5186
STARLINK-36745          
1 68257U 26054AB  26100.57574277  .00114543  00000+0  74002-3 0  9991
2 68257  53.1573 153.1185 0001029  92.7766 267.3372 15.75278958  3816
STARLINK-36890          
1 68258U 26054AC  26101.29314179  .00391460  00000+0  18873-2 0  9993
2 68258  53.1569 149.0416 0001253 140.4640 219.6474 15.80999027  3933
STARLINK-36323          
1 68259U 26054AD  26101.25517722  .00297281  00000+0  18586-2 0  9996
2 68259  53.1583 149.5272 0002107  45.3071 314.8121 15.75453934  3927
STARLINK-37056          
1 68260U 26054AE  26100.84985621  .00332966  00000+0  16210-2 0  9991
2 68260  53.1570 151.2546 0002318  80.3606 279.7679 15.80944125  3869
TEN-KOH 2               
1 68261U 25241B   26100.77785550  .00008387  00000+0  36506-3 0  9998
2 68261  51.6421 280.3000 0004826 277.8245  82.2185 15.23026713  4631
STARLINK-37162          
1 68262U 26055A   26100.50516467  .00267551  00000+0  13092-2 0  9997
2 68262  53.1575 177.8513 0001314 107.3865 252.7302 15.81010959  4715
STARLINK-37156          
1 68263U 26055B   26100.63085837  .00150988  00000+0  75326-3 0  9998
2 68263  53.1577 177.2126 0000806  33.2138 326.8935 15.80929361  4739
STARLINK-37163          
1 68264U 26055C   26100.50291746  .00348955  00000+0  16948-2 0  9990
2 68264  53.1577 177.8353 0001518 105.9251 254.1939 15.80953476  4711
STARLINK-37133          
1 68265U 26055D   26100.56688151  .00361629  00000+0  17463-2 0  9993
2 68265  53.1575 177.5240 0001338  47.7076 312.4060 15.81044085  4722
STARLINK-37042          
1 68266U 26055E   26100.50216547  .00244320  00000+0  11995-2 0  9996
2 68266  53.1574 177.8304 0001341  77.5110 282.6062 15.81002971  4717
STARLINK-37103          
1 68267U 26055F   26100.50141492  .00252008  00000+0  12365-2 0  9997
2 68267  53.1577 177.8257 0001154 106.1270 253.9880 15.80993707  4710
STARLINK-36999          
1 68268U 26055G   26100.50066501  .00281669  00000+0  13759-2 0  9998
2 68268  53.1575 177.8204 0001190  92.8422 267.2737 15.81008752  4718
STARLINK-36962          
1 68269U 26055H   26100.49991502  .00247474  00000+0  12149-2 0  9993
2 68269  53.1576 177.8154 0001204 100.1617 259.9542 15.80995389  4711
STARLINK-37028          
1 68270U 26055J   26100.49841580  .00240899  00000+0  11845-2 0  9991
2 68270  53.1576 177.8050 0001161  65.8127 294.3017 15.80978892  4713
STARLINK-37029          
1 68271U 26055K   26100.43594693  .00165385  00000+0  82249-3 0  9999
2 68271  53.1577 178.1272 0001076 116.9120 243.2013 15.80952486  4700
