[{"OBJECT_NAME":"STARLINK-36333","OBJECT_ID":"2026-054AA","EPOCH":"2026-04-11T06:00:02.000160","MEAN_MOTION":15.75262854,"ECCENTRICITY":0.0001118,"INCLINATION":53.1593,"RA_OF_ASC_NODE":149.3949,"ARG_OF_PERICENTER":106.3631,"MEAN_ANOMALY":301.8181,"EPHEMERIS_TYPE":0,"CLASSIFICATION_TYPE":"U","NORAD_CAT_ID":68256,"ELEMENT_SET_NO":999,"REV_AT_EPOCH":518,"BSTAR":-0.00042946577,"MEAN_MOTION_DOT":-0.00066027,"MEAN_MOTION_DDOT":0},{"OBJECT_NAME":"STARLINK-36745","OBJECT_ID":"2026-054AB","EPOCH":"2026-04-10T13:49:04.175328","MEAN_MOTION":15.75278958,"ECCENTRICITY":0.00010296,"INCLINATION":53.1573,"RA_OF_ASC_NODE":153.1185,"ARG_OF_PERICENTER":92.7766,"MEAN_ANOMALY":267.3372,"EPHEMERIS_TYPE":0,"CLASSIFICATION_TYPE":"U","NORAD_CAT_ID":68257,"ELEMENT_SET_NO":999,"REV_AT_EPOCH":381,"BSTAR":0.00074001512,"MEAN_MOTION_DOT":0.00114543,"MEAN_MOTION_DDOT":0},{"OBJECT_NAME":"STARLINK-36890","OBJECT_ID":"2026-054AC","EPOCH":"2026-04-11T07:02:07.450656","MEAN_MOTION":15.80999027,"ECCENTRICITY":0.00012531,"INCLINATION":53.1569,"RA_OF_ASC_NODE":149.0416,"ARG_OF_PERICENTER":140.464,"MEAN_ANOMALY":219.6474,"EPHEMERIS_TYPE":0,"CLASSIFICATION_TYPE":"U","NORAD_CAT_ID":68258,"ELEMENT_SET_NO":999,"REV_AT_EPOCH":393,"BSTAR":0.0018873434,"MEAN_MOTION_DOT":0.0039146,"MEAN_MOTION_DDOT":0},{"OBJECT_NAME":"STARLINK-36323","OBJECT_ID":"2026-054AD","EPOCH":"2026-04-11T06:07:27.311808","MEAN_MOTION":15.75453934,"ECCENTRICITY":0.00021072,"INCLINATION":53.1583,"RA_OF_ASC_NODE":149.5272,"ARG_OF_PERICENTER":45.3071,"MEAN_ANOMALY":314.8121,"EPHEMERIS_TYPE":0,"CLASSIFICATION_TYPE":"U","NORAD_CAT_ID":68259,"ELEMENT_SET_NO":999,"REV_AT_EPOCH":392,"BSTAR":0.0018586124,"MEAN_MOTION_DOT":0.00297281,"MEAN_MOTION_DDOT":0},{"OBJECT_NAME":"STARLINK-37056","OBJECT_ID":"2026-054AE","EPOCH":"2026-04-10T20:23:47.576544","MEAN_MOTION":15.80944125,"ECCENTRICITY":0.00023189,"INCLINATION":53.157,"RA_OF_ASC_NODE":151.2546,"ARG_OF_PERICENTER":80.3606,"MEAN_ANOMALY":279.7679,"EPHEMERIS_TYPE":0,"CLASSIFICATION_TYPE":"U","NORAD_CAT_ID":68260,"ELEMENT_SET_NO":999,"REV_AT_EPOCH":386,"BSTAR":0.0016209729,"MEAN_MOTION_DOT":0.00332966,"MEAN_MOTION_DDOT":0},{"OBJECT_NAME":"TEN-KOH 2","OBJECT_ID":"2025-241B","EPOCH":"2026-04-10T18:40:06.715200","MEAN_MOTION":15.23026713,"ECCENTRICITY":0.00048263,"INCLINATION":51.6421,"RA_OF_ASC_NODE":280.3,"ARG_OF_PERICENTER":277.8245,"MEAN_ANOMALY":82.2185,"EPHEMERIS_TYPE":0,"CLASSIFICATION_TYPE":"U","NORAD_CAT_ID":68261,"ELEMENT_SET_NO":999,"REV_AT_EPOCH":463,"BSTAR":0.00036506246,"MEAN_MOTION_DOT":8.387e-5,"MEAN_MOTION_DDOT":0},{"OBJECT_NAME":"STARLINK-37162","OBJECT_ID":"2026-055A","EPOCH":"2026-04-10T12:07:26.227488","MEAN_MOTION":15.81010959,"ECCENTRICITY":0.00013143,"INCLINATION":53.1575,"RA_OF_ASC_NODE":177.8513,"ARG_OF_PERICENTER":107.3865,"MEAN_ANOMALY":252.7302,"EPHEMERIS_TYPE":0,"CLASSIFICATION_TYPE":"U","NORAD_CAT_ID":68262,"ELEMENT_SET_NO":999,"REV_AT_EPOCH":471,"BSTAR":0.0013091734,"MEAN_MOTION_DOT":0.00267551,"MEAN_MOTION_DDOT":0},{"OBJECT_NAME":"STARLINK-37156","OBJECT_ID":"2026-055B","EPOCH":"2026-04-10T15:08:26.163168","MEAN_MOTION":15.80929361,"ECCENTRICITY":8.061e-5,"INCLINATION":53.1577,"RA_OF_ASC_NODE":177.2126,"ARG_OF_PERICENTER":33.2138,"MEAN_ANOMALY":326.8935,"EPHEMERIS_TYPE":0,"CLASSIFICATION_TYPE":"U","NORAD_CAT_ID":68263,"ELEMENT_SET_NO":999,"REV_AT_EPOCH":473,"BSTAR":0.0007532579,"MEAN_MOTION_DOT":0.00150988,"MEAN_MOTION_DDOT":0},{"OBJECT_NAME":"STARLINK-37163","OBJECT_ID":"2026-055C","EPOCH":"2026-04-10T12:04:12.068544","MEAN_MOTION":15.80953476,"ECCENTRICITY":0.00015183,"INCLINATION":53.1577,"RA_OF_ASC_NODE":177.8353,"ARG_OF_PERICENTER":105.9251,"MEAN_ANOMALY":254.1939,"EPHEMERIS_TYPE":0,"CLASSIFICATION_TYPE":"U","NORAD_CAT_ID":68264,"ELEMENT_SET_NO":999,"REV_AT_EPOCH":471,"BSTAR":0.0016947594,"MEAN_MOTION_DOT":0.00348955,"MEAN_MOTION_DDOT":0},{"OBJECT_NAME":"STARLINK-37133","OBJECT_ID":"2026-055D","EPOCH":"2026-04-10T13:36:18.562464","MEAN_MOTION":15.81044085,"ECCENTRICITY":0.00013381,"INCLINATION":53.1575,"RA_OF_ASC_NODE":177.524,"ARG_OF_PERICENTER":47.7076,"MEAN_ANOMALY":312.406,"EPHEMERIS_TYPE":0,"CLASSIFICATION_TYPE":"U","NORAD_CAT_ID":68265,"ELEMENT_SET_NO":999,"REV_AT_EPOCH":472,"BSTAR":0.0017462789,"MEAN_MOTION_DOT":0.00361629,"MEAN_MOTION_DDOT":0},{"OBJECT_NAME":"STARLINK-37042","OBJECT_ID":"2026-055E","EPOCH":"2026-04-10T12:03:07.096608","MEAN_MOTION":15.81002971,"ECCENTRICITY":0.00013411,"INCLINATION":53.1574,"RA_OF_ASC_NODE":177.8304,"ARG_OF_PERICENTER":77.511,"MEAN_ANOMALY":282.6062,"EPHEMERIS_TYPE":0,"CLASSIFICATION_TYPE":"U","NORAD_CAT_ID":68266,"ELEMENT_SET_NO":999,"REV_AT_EPOCH":471,"BSTAR":0.0011994858,"MEAN_MOTION_DOT":0.0024432,"MEAN_MOTION_DDOT":0},{"OBJECT_NAME":"STARLINK-37103","OBJECT_ID":"2026-055F","EPOCH":"2026-04-10T12:02:02.249088","MEAN_MOTION":15.80993707,"ECCENTRICITY":0.00011549,"INCLINATION":53.1577,"RA_OF_ASC_NODE":177.8257,"ARG_OF_PERICENTER":106.127,"MEAN_ANOMALY":253.988,"EPHEMERIS_TYPE":0,"CLASSIFICATION_TYPE":"U","NORAD_CAT_ID":68267,"ELEMENT_SET_NO":999,"REV_AT_EPOCH":471,"BSTAR":0.0012365368,"MEAN_MOTION_DOT":0.00252008,"MEAN_MOTION_DDOT":0},{"OBJECT_NAME":"STARLINK-36999","OBJECT_ID":"2026-055G","EPOCH":"2026-04-10T12:00:57.456864","MEAN_MOTION":15.81008752,"ECCENTRICITY":0.000119,"INCLINATION":53.1575,"RA_OF_ASC_NODE":177.8204,"ARG_OF_PERICENTER":92.8422,"MEAN_ANOMALY":267.2737,"EPHEMERIS_TYPE":0,"CLASSIFICATION_TYPE":"U","NORAD_CAT_ID":68268,"ELEMENT_SET_NO":999,"REV_AT_EPOCH":471,"BSTAR":0.0013759379,"MEAN_MOTION_DOT":0.00281669,"MEAN_MOTION_DDOT":0},{"OBJECT_NAME":"STARLINK-36962","OBJECT_ID":"2026-055H","EPOCH":"2026-04-10T11:59:52.657728","MEAN_MOTION":15.80995389,"ECCENTRICITY":0.0001204,"INCLINATION":53.1576,"RA_OF_ASC_NODE":177.8154,"ARG_OF_PERICENTER":100.1617,"MEAN_ANOMALY":259.9542,"EPHEMERIS_TYPE":0,"CLASSIFICATION_TYPE":"U","NORAD_CAT_ID":68269,"ELEMENT_SET_NO":999,"REV_AT_EPOCH":471,"BSTAR":0.0012149026,"MEAN_MOTION_DOT":0.00247474,"MEAN_MOTION_DDOT":0},{"OBJECT_NAME":"STARLINK-37028","OBJECT_ID":"2026-055J","EPOCH":"2026-04-10T11:57:43.125120","MEAN_MOTION":15.80978892,"ECCENTRICITY":0.00011615,"INCLINATION":53.1576,"RA_OF_ASC_NODE":177.805,"ARG_OF_PERICENTER":65.8127,"MEAN_ANOMALY":294.3017,"EPHEMERIS_TYPE":0,"CLASSIFICATION_TYPE":"U","NORAD_CAT_ID":68270,"ELEMENT_SET_NO":999,"REV_AT_EPOCH":471,"BSTAR":0.0011845217,"MEAN_MOTION_DOT":0.00240899,"MEAN_MOTION_DDOT":0},{"OBJECT_NAME":"STARLINK-37029","OBJECT_ID":"2026-055K","EPOCH":"2026-04-10T10:27:45.814752","MEAN_MOTION":15.80952486,"ECCENTRICITY":0.00010761,"INCLINATION":53.1577,"RA_OF_ASC_NODE":178.1272,"ARG_OF_PERICENTER":116.912,"MEAN_ANOMALY":243.2013,"EPHEMERIS_TYPE":0,"CLASSIFICATION_TYPE":"U","NORAD_CAT_ID":68271,"ELEMENT_SET_NO":999,"REV_AT_EPOCH":470,"BSTAR":0.00082249175,"MEAN_MOTION_DOT":0.00165385,"MEAN_MOTION_DDOT":0}]
